OBJECT_NAME,OBJECT_ID,EPOCH,MEAN_MOTION,ECCENTRICITY,INCLINATION,RA_OF_ASC_NODE,ARG_OF_PERICENTER,MEAN_ANOMALY,EPHEMERIS_TYPE,CLASSIFICATION_TYPE,NORAD_CAT_ID,ELEMENT_SET_NO,REV_AT_EPOCH,BSTAR,MEAN_MOTION_DOT,MEAN_MOTION_DDOT
SL-8 R/B,1985-006B,2026-07-22T11:45:33.471072,14.37848210,.00192183,74.0459,13.0957,255.1905,115.3177,0,U,15483,999,17340,.78198597E-4,.21E-5,0
SL-12 R/B(2),1985-042D,2026-07-22T08:15:13.813632,14.22012145,.00373774,71.1075,163.2382,275.6970,194.2128,0,U,15772,999,13353,.21877262E-4,.1E-7,0
SL-14 R/B,1985-069B,2026-07-22T13:48:55.803168,14.86538412,.00203254,82.5252,258.0848,104.5539,255.7934,0,U,15945,999,19287,.27613483E-4,.27E-5,0
SL-16 R/B,1985-097B,2026-07-22T10:47:46.386816,14.16616359,.00059474,71.0007,216.8387,36.7357,113.4506,0,U,16182,999,10631,.99494709E-4,.151E-5,0
SL-14 R/B,1986-006B,2026-07-22T07:30:59.292864,14.86972076,.00760877,82.5286,133.0604,185.1099,174.9352,0,U,16496,999,16921,.3345455E-4,.343E-5,0
COSMOS 1743,1986-034A,2026-07-22T07:07:31.927584,15.70214648,.00055539,82.5267,291.3126,154.7654,205.3880,0,U,16719,999,20129,.47961691E-3,.58423E-3,0
SL-14 R/B,1986-046B,2026-07-22T13:54:23.889888,14.85694500,.00241165,82.4841,312.7348,139.4182,220.8838,0,U,16792,999,14643,.36240182E-4,.341E-5,0
SL-14 R/B,1986-055B,2026-07-22T10:18:58.148352,14.85743809,.00174836,82.5210,359.9937,244.2699,145.2789,0,U,16882,999,13937,.35804685E-4,.336E-5,0
AJISAI (EGS),1986-061A,2026-07-22T14:57:55.030176,12.44516667,.00110764,50.0105,38.4292,270.8353,124.7547,0,U,16908,999,48480,-.57918245E-4,-.106E-5,0
SL-14 R/B,1987-024B,2026-07-22T08:41:02.255424,14.86235670,.00184794,82.5304,326.1891,169.9632,190.1957,0,U,17567,999,10813,.38756478E-4,.366E-5,0
COSMOS 1833,1987-027A,2026-07-22T12:04:07.597344,14.13067845,.00247877,70.9214,42.6402,357.0629,3.0342,0,U,17589,999,2936,.15741819E-4,-.19E-6,0
SL-16 R/B,1987-027B,2026-07-21T19:15:21.040704,14.17176156,.00072445,71.0041,353.8820,274.8596,85.1700,0,U,17590,999,3434,.87677913E-4,.129E-5,0
SL-14 R/B,1987-038B,2026-07-22T06:59:40.368480,14.85465025,.00208366,82.5021,170.0065,80.5031,279.8538,0,U,17912,999,9921,.37416749E-4,.348E-5,0
COSMOS 1844,1987-041A,2026-07-22T04:20:44.265696,14.14581286,.00308532,70.9000,110.4956,185.1930,174.8877,0,U,17973,999,2260,-.20901225E-4,-.89E-6,0
SL-14 R/B,1987-055B,2026-07-22T10:43:03.617760,14.85730020,.00190827,82.4969,221.9883,289.3884,70.5270,0,U,18153,999,8994,.29861308E-4,.284E-5,0
COSMOS 1867,1987-060A,2026-07-22T08:14:03.185952,14.31518987,.00173262,65.0113,289.6026,281.9425,77.9717,0,U,18187,999,3921,.6211602E-5,-.84E-6,0
SL-14 R/B,1988-001B,2026-07-22T14:03:33.589152,14.85629967,.00187824,82.5114,68.4675,148.0344,212.2016,0,U,18749,999,6205,.29173725E-4,.278E-5,0
COSMOS 1933,1988-020A,2026-07-22T05:14:57.636096,15.18922418,.00059535,82.5137,117.7417,90.2193,269.9724,0,U,18958,999,7064,.1430248E-3,.3017E-4,0
SL-3 R/B,1988-032B,2026-07-22T12:09:25.284960,15.21070511,.00270569,97.5281,186.5215,121.4834,238.9050,0,U,19046,999,7259,.188412E-3,.4155E-4,0
SL-16 R/B,1988-039B,2026-07-22T06:45:15.564960,14.19632199,.0020263,71.0148,143.9518,137.8094,222.4595,0,U,19120,999,97748,.12005017E-4,-.23E-6,0
COSMOS 1953,1988-050A,2026-07-22T09:30:32.099904,15.30406321,.00108484,82.5072,22.5122,15.9615,344.1965,0,U,19210,999,5837,.24961928E-3,.7384E-4,0
SL-8 R/B,1988-053B,2026-07-22T11:34:42.638880,14.38980421,.00200096,74.0451,223.9952,7.3850,160.5842,0,U,19257,999,99598,.56274536E-4,.148E-5,0
COSMOS 1975,1988-093A,2026-07-22T08:25:18.928128,15.29732798,.00121996,82.5205,342.3185,60.0055,300.2394,0,U,19573,999,3998,.27516608E-3,.7974E-4,0
SL-14 R/B,1988-093B,2026-07-22T11:39:50.876064,14.85763128,.00194528,82.5307,275.5077,315.1384,55.3120,0,U,19574,999,2103,.28238376E-4,.27E-5,0
SL-16 R/B,1988-102B,2026-07-22T12:49:23.326464,14.16168471,.0013865,70.9972,227.7640,174.2171,185.9115,0,U,19650,999,94598,.14697115E-3,.243E-5,0
INTERCOSMOS 24,1989-080A,2026-07-22T10:29:08.956608,12.59694218,.11868502,82.6059,16.6991,340.1334,15.6985,0,U,20261,999,68376,.68411041E-4,.241E-5,0
SL-14 R/B,1989-080C,2026-07-22T14:28:38.218368,12.50579544,.12289941,82.5924,86.5511,236.3439,111.4494,0,U,20262,999,67701,.25570427E-4,.9E-6,0
DELTA 1 R/B,1989-089B,2026-07-22T02:51:40.102560,14.50750696,.00704558,97.0639,29.0877,58.5535,302.2526,0,U,20323,999,91522,.63572018E-4,.223E-5,0
ARIANE 40 R/B,1990-005H,2026-07-22T13:16:22.433088,14.39943148,.00107481,98.2938,260.0656,152.9461,207.2290,0,U,20443,999,91221,.58469313E-4,.142E-5,0
DELTA 2 R/B(1),1990-008B,2026-07-22T12:06:43.937280,15.74987263,.00552819,35.6009,358.3366,85.6554,275.0502,0,U,20453,999,94726,.72436855E-3,.125068E-2,0
