SL-8 R/B                
1 15483U 85006B   26203.48997073  .00000210  00000+0  78199-4 0  9990
2 15483  74.0459  13.0957 0019218 255.1905 115.3177 14.37848210173403
SL-12 R/B(2)            
1 15772U 85042D   26203.34390988  .00000001  00000+0  21877-4 0  9997
2 15772  71.1075 163.2382 0037377 275.6970 194.2128 14.22012145133537
SL-14 R/B               
1 15945U 85069B   26203.57564587  .00000270  00000+0  27613-4 0  9993
2 15945  82.5252 258.0848 0020325 104.5539 255.7934 14.86538412192878
SL-16 R/B               
1 16182U 85097B   26203.44984244  .00000151  00000+0  99495-4 0  9995
2 16182  71.0007 216.8387 0005947  36.7357 113.4506 14.16616359106319
SL-14 R/B               
1 16496U 86006B   26203.31318626  .00000343  00000+0  33455-4 0  9992
2 16496  82.5286 133.0604 0076087 185.1099 174.9352 14.86972076169217
COSMOS 1743             
1 16719U 86034A   26203.29689731  .00058423  00000+0  47962-3 0  9995
2 16719  82.5267 291.3126 0005553 154.7654 205.3880 15.70214648201298
SL-14 R/B               
1 16792U 86046B   26203.57944317  .00000341  00000+0  36240-4 0  9998
2 16792  82.4841 312.7348 0024116 139.4182 220.8838 14.85694500146435
SL-14 R/B               
1 16882U 86055B   26203.42983968  .00000336  00000+0  35805-4 0  9997
2 16882  82.5210 359.9937 0017483 244.2699 145.2789 14.85743809139377
AJISAI (EGS)            
1 16908U 86061A   26203.62355359 -.00000106  00000+0 -57918-4 0  9998
2 16908  50.0105  38.4292 0011076 270.8353 124.7547 12.44516667484804
SL-14 R/B               
1 17567U 87024B   26203.36183166  .00000366  00000+0  38756-4 0  9991
2 17567  82.5304 326.1891 0018479 169.9632 190.1957 14.86235670108132
COSMOS 1833             
1 17589U 87027A   26203.50286571 -.00000019  00000+0  15742-4 0  9994
2 17589  70.9214  42.6402 0024787 357.0629   3.0342 14.13067845 29364
SL-16 R/B               
1 17590U 87027B   26202.80232686  .00000129  00000+0  87678-4 0  9994
2 17590  71.0041 353.8820 0007244 274.8596  85.1700 14.17176156 34348
SL-14 R/B               
1 17912U 87038B   26203.29143945  .00000348  00000+0  37417-4 0  9996
2 17912  82.5021 170.0065 0020836  80.5031 279.8538 14.85465025 99218
COSMOS 1844             
1 17973U 87041A   26203.18106789 -.00000089  00000+0 -20901-4 0  9994
2 17973  70.9000 110.4956 0030853 185.1930 174.8877 14.14581286 22609
SL-14 R/B               
1 18153U 87055B   26203.44656965  .00000284  00000+0  29861-4 0  9994
2 18153  82.4969 221.9883 0019082 289.3884  70.5270 14.85730020 89944
COSMOS 1867             
1 18187U 87060A   26203.34309243 -.00000084  00000+0  62116-5 0  9990
2 18187  65.0113 289.6026 0017326 281.9425  77.9717 14.31518987 39216
SL-14 R/B               
1 18749U 88001B   26203.58580543  .00000278  00000+0  29174-4 0  9990
2 18749  82.5114  68.4675 0018782 148.0344 212.2016 14.85629967 62052
COSMOS 1933             
1 18958U 88020A   26203.21872264  .00003017  00000+0  14302-3 0  9997
2 18958  82.5137 117.7417 0005953  90.2193 269.9724 15.18922418 70640
SL-3 R/B                
1 19046U 88032B   26203.50654265  .00004155  00000+0  18841-3 0  9996
2 19046  97.5281 186.5215 0027056 121.4834 238.9050 15.21070511 72598
SL-16 R/B               
1 19120U 88039B   26203.28143015 -.00000023  00000+0  12005-4 0  9995
2 19120  71.0148 143.9518 0020263 137.8094 222.4595 14.19632199977481
COSMOS 1953             
1 19210U 88050A   26203.39620486  .00007384  00000+0  24962-3 0  9992
2 19210  82.5072  22.5122 0010848  15.9615 344.1965 15.30406321 58371
SL-8 R/B                
1 19257U 88053B   26203.48243795  .00000148  00000+0  56275-4 0  9994
2 19257  74.0451 223.9952 0020009   7.3850 160.5842 14.38980421995989
COSMOS 1975             
1 19573U 88093A   26203.35091352  .00007974  00000+0  27517-3 0  9995
2 19573  82.5205 342.3185 0012199  60.0055 300.2394 15.29732798 39986
SL-14 R/B               
1 19574U 88093B   26203.48600551  .00000270  00000+0  28238-4 0  9991
2 19574  82.5307 275.5077 0019452 315.1384  55.3120 14.85763128 21039
SL-16 R/B               
1 19650U 88102B   26203.53429776  .00000243  00000+0  14697-3 0  9994
2 19650  70.9972 227.7640 0013865 174.2171 185.9115 14.16168471945985
INTERCOSMOS 24          
1 20261U 89080A   26203.43690922  .00000241  00000+0  68411-4 0  9994
2 20261  82.6059  16.6991 1186850 340.1334  15.6985 12.59694218683763
SL-14 R/B               
1 20262U 89080C   26203.60322012  .00000090  00000+0  25570-4 0  9997
2 20262  82.5924  86.5511 1228994 236.3439 111.4494 12.50579544677012
DELTA 1 R/B             
1 20323U 89089B   26203.11921415  .00000223  00000+0  63572-4 0  9994
2 20323  97.0639  29.0877 0070455  58.5535 302.2526 14.50750696915223
ARIANE 40 R/B           
1 20443U 90005H   26203.55303742  .00000142  00000+0  58469-4 0  9991
2 20443  98.2938 260.0656 0010748 152.9461 207.2290 14.39943148912210
DELTA 2 R/B(1)          
1 20453U 90008B   26203.50467520  .00125068  00000+0  72437-3 0  9990
2 20453  35.6009 358.3366 0055281  85.6554 275.0502 15.74987263947268
